OBJECT_NAME,OBJECT_ID,EPOCH,MEAN_MOTION,ECCENTRICITY,INCLINATION,RA_OF_ASC_NODE,ARG_OF_PERICENTER,MEAN_ANOMALY,EPHEMERIS_TYPE,CLASSIFICATION_TYPE,NORAD_CAT_ID,ELEMENT_SET_NO,REV_AT_EPOCH,BSTAR,MEAN_MOTION_DOT,MEAN_MOTION_DDOT
AZERSPACE 2 (IS-38),2018-074A,2026-06-10T04:57:03.002400,1.00271659,.00012334,0.0026,68.5663,12.8664,296.5131,0,U,43632,999,2837,0,.154E-5,0
HORIZONS-3E,2018-074B,2026-06-09T03:52:26.934240,1.00270197,.0000957,0.0093,158.1609,124.5481,201.9406,0,U,43633,999,2826,0,-.14E-6,0
AEHF-4 (USA 288),2018-079A,2026-06-10T06:07:20.027424,1.00275284,.00605187,1.4298,3.3338,356.6974,282.8447,0,U,43651,999,2822,0,-.258E-5,0
BEIDOU-3 G1,2018-085A,2026-06-10T05:29:52.389312,1.00271293,.00083936,2.8495,97.5775,347.8142,55.6489,0,U,43683,999,2799,0,-.91E-6,0
GSAT-29,2018-089A,2026-06-10T04:59:55.226976,1.00271954,.00034735,0.0496,110.9722,323.8856,313.7259,0,U,43698,999,2771,0,.103E-5,0
ES'HAIL 2,2018-090A,2026-06-10T06:34:09.954912,1.00273901,.0001901,0.0130,295.1016,185.1228,262.7748,0,U,43700,999,2760,0,.162E-5,0
GEO-KOMPSAT-2A,2018-100A,2026-06-09T19:04:50.104704,1.00269926,.0002233,0.0520,130.4715,314.0489,228.1123,0,U,43823,999,2755,0,-.326E-5,0
GSAT-11,2018-100B,2026-06-10T04:42:21.653280,1.00271242,.00077915,0.0460,255.9585,190.5085,316.6910,0,U,43824,999,2740,0,-.59E-6,0
GSAT-7A,2018-105A,2026-06-10T03:19:28.055424,1.00269535,.00021362,0.0146,283.7609,136.2063,311.1909,0,U,43864,999,2737,0,.44E-6,0
COSMOS 2533,2018-107A,2026-06-09T11:57:34.187040,1.00270322,.00002998,0.0434,101.3867,24.8871,20.9850,0,U,43867,999,2737,0,-.21E-6,0
TJS-3,2018-110A,2026-06-09T15:05:06.871200,1.00272661,.0002009,2.5243,80.5821,77.4522,114.4992,0,U,43874,999,2734,0,-.199E-5,0
ZHONGXING-2D,2019-001A,2026-06-09T05:23:58.813728,1.00268642,.00006559,0.0490,89.3904,283.2683,95.9372,0,U,43920,999,5400,0,-.32E-5,0
HELLAS-SAT 4 & SGS-1,2019-007A,2026-06-09T11:48:42.536736,1.00272091,.00050878,0.0659,133.0572,8.6055,332.4040,0,U,44034,999,2729,0,.17E-5,0
GSAT-31,2019-007B,2026-06-10T04:57:47.930400,1.00271491,.00019136,0.0827,261.4491,104.8316,14.5496,0,U,44035,999,2689,0,.143E-5,0
NUSANTARA SATU,2019-009A,2026-06-09T05:28:35.870880,1.00269842,.00042913,0.0401,145.4911,326.7553,13.5159,0,U,44048,999,2669,0,-.218E-5,0
ZHONGXING-6C,2019-012A,2026-06-08T17:25:26.779296,1.00268549,.00133551,0.1423,80.4292,330.3838,238.0639,0,U,44067,999,2665,0,-.319E-5,0
WGS 10 (USA 291),2019-014A,2026-06-10T05:01:25.082976,1.00271027,.00004221,0.0206,357.8444,314.8428,81.5494,0,U,44071,999,2654,0,0,0
TIANLIAN 2-01,2019-017A,2026-06-10T05:36:38.605824,1.00271032,.0000753,0.5210,83.1225,14.5652,322.0950,0,U,44076,999,2657,0,-.89E-6,0
ARABSAT-6A,2019-021A,2026-06-09T04:55:37.438752,1.00284123,.000128,0.0494,0.6850,101.2480,260.1178,0,U,44186,999,2607,0,.171E-5,0
BEIDOU-3 IGSO-1,2019-023A,2026-06-06T22:54:10.040832,1.00294886,.00254341,58.6799,37.7569,225.6649,92.8731,0,U,44204,999,710,0,-.215E-5,0
BEIDOU-2 G8,2019-027A,2026-06-10T07:08:03.486048,1.00273584,.00104126,1.6394,74.4945,283.7948,151.9191,0,U,44231,999,2601,0,-.229E-5,0
YAMAL 601,2019-031A,2026-06-10T06:40:31.844640,1.00271904,.00023129,0.0207,61.4137,19.0027,327.3615,0,U,44307,999,2585,0,.137E-5,0
AT&T T-16,2019-034A,2026-06-09T16:16:49.046880,1.00268740,.00006409,0.0247,68.1337,190.5571,142.7032,0,U,44333,999,2555,0,-.98E-6,0
EUTELSAT 7C,2019-034B,2026-06-10T03:51:38.494944,1.00271195,.00030612,0.0735,173.1347,250.6305,259.6729,0,U,44334,999,676,0,.66E-6,0
BEIDOU-3 IGSO-2,2019-035A,2026-06-09T00:25:00.952032,1.00269508,.00399597,55.2449,158.9337,216.4337,8.1508,0,U,44337,999,2558,0,-.43E-6,0
EDRS-C,2019-049A,2026-06-09T15:43:37.228800,1.00270940,.00010077,0.0409,141.6066,308.4571,186.3828,0,U,44475,999,2513,0,-.245E-5,0
INTELSAT 39 (IS-39),2019-049B,2026-06-10T05:01:55.035264,1.00270440,.00009033,0.0193,319.5347,353.1759,83.2984,0,U,44476,999,2505,0,.51E-6,0
AMOS-17,2019-050A,2026-06-09T23:40:49.114848,1.00270721,.00015691,0.0150,336.4106,127.3490,166.7906,0,U,44479,999,2511,0,.126E-5,0
AEHF-5 (USA 292),2019-051A,2026-06-10T01:45:33.848352,1.00267036,.00670195,1.4600,335.6087,0.7496,41.4730,0,U,44481,999,2519,0,-.24E-5,0
EUTELSAT 5 WEST B,2019-067A,2026-06-10T06:25:25.792032,1.00271933,.00030612,0.0629,350.2487,88.9655,270.7879,0,U,44624,999,2436,0,-.25E-6,0
TJS-4,2019-070A,2026-06-10T03:25:19.992864,1.00269683,.00047421,0.0186,312.6415,87.1137,353.6010,0,U,44637,999,2446,0,-.152E-5,0
