AZERSPACE 2 (IS-38)     
1 43632U 18074A   26161.20628475  .00000154  00000+0  00000+0 0  9996
2 43632   0.0026  68.5663 0001233  12.8664 296.5131  1.00271659 28376
HORIZONS-3E             
1 43633U 18074B   26160.16142285 -.00000014  00000+0  00000+0 0  9997
2 43633   0.0093 158.1609 0000957 124.5481 201.9406  1.00270197 28266
AEHF-4 (USA 288)        
1 43651U 18079A   26161.25509291 -.00000258  00000+0  00000+0 0  9997
2 43651   1.4298   3.3338 0060518 356.6974 282.8447  1.00275284 28223
BEIDOU-3 G1             
1 43683U 18085A   26161.22907858 -.00000091  00000+0  00000+0 0  9992
2 43683   2.8495  97.5775 0008393 347.8142  55.6489  1.00271293 27995
GSAT-29                 
1 43698U 18089A   26161.20827809  .00000103  00000+0  00000+0 0  9990
2 43698   0.0496 110.9722 0003473 323.8856 313.7259  1.00271954 27711
ES'HAIL 2               
1 43700U 18090A   26161.27372633  .00000162  00000+0  00000+0 0  9998
2 43700   0.0130 295.1016 0001901 185.1228 262.7748  1.00273901 27606
GEO-KOMPSAT-2A          
1 43823U 18100A   26160.79502436 -.00000326  00000+0  00000+0 0  9991
2 43823   0.0520 130.4715 0002233 314.0489 228.1123  1.00269926 27552
GSAT-11                 
1 43824U 18100B   26161.19608395 -.00000059  00000+0  00000+0 0  9991
2 43824   0.0460 255.9585 0007791 190.5085 316.6910  1.00271242 27402
GSAT-7A                 
1 43864U 18105A   26161.13851916  .00000044  00000+0  00000+0 0  9996
2 43864   0.0146 283.7609 0002136 136.2063 311.1909  1.00269535 27370
COSMOS 2533             
1 43867U 18107A   26160.49831235 -.00000021  00000+0  00000+0 0  9997
2 43867   0.0434 101.3867 0000299  24.8871  20.9850  1.00270322 27377
TJS-3                   
1 43874U 18110A   26160.62855175 -.00000199  00000+0  00000+0 0  9999
2 43874   2.5243  80.5821 0002009  77.4522 114.4992  1.00272661 27347
ZHONGXING-2D            
1 43920U 19001A   26160.22498627 -.00000320  00000+0  00000+0 0  9998
2 43920   0.0490  89.3904 0000655 283.2683  95.9372  1.00268642 54007
HELLAS-SAT 4 & SGS-1    
1 44034U 19007A   26160.49215899  .00000170  00000+0  00000+0 0  9990
2 44034   0.0659 133.0572 0005087   8.6055 332.4040  1.00272091 27290
GSAT-31                 
1 44035U 19007B   26161.20680475  .00000143  00000+0  00000+0 0  9997
2 44035   0.0827 261.4491 0001913 104.8316  14.5496  1.00271491 26898
NUSANTARA SATU          
1 44048U 19009A   26160.22819295 -.00000218  00000+0  00000+0 0  9992
2 44048   0.0401 145.4911 0004291 326.7553  13.5159  1.00269842 26698
ZHONGXING-6C            
1 44067U 19012A   26159.72600439 -.00000319  00000+0  00000+0 0  9990
2 44067   0.1423  80.4292 0013355 330.3838 238.0639  1.00268549 26658
WGS 10 (USA 291)        
1 44071U 19014A   26161.20931809  .00000000  00000+0  00000+0 0  9997
2 44071   0.0206 357.8444 0000422 314.8428  81.5494  1.00271027 26547
TIANLIAN 2-01           
1 44076U 19017A   26161.23378016 -.00000089  00000+0  00000+0 0  9991
2 44076   0.5210  83.1225 0000753  14.5652 322.0950  1.00271032 26577
ARABSAT-6A              
1 44186U 19021A   26160.20529443  .00000171  00000+0  00000+0 0  9997
2 44186   0.0494   0.6850 0001280 101.2480 260.1178  1.00284123 26079
BEIDOU-3 IGSO-1         
1 44204U 19023A   26157.95428288 -.00000215  00000+0  00000+0 0  9993
2 44204  58.6799  37.7569 0025434 225.6649  92.8731  1.00294886  7105
BEIDOU-2 G8             
1 44231U 19027A   26161.29726257 -.00000229  00000+0  00000+0 0  9991
2 44231   1.6394  74.4945 0010412 283.7948 151.9191  1.00273584 26017
YAMAL 601               
1 44307U 19031A   26161.27814635  .00000137  00000+0  00000+0 0  9993
2 44307   0.0207  61.4137 0002312  19.0027 327.3615  1.00271904 25859
AT&T T-16               
1 44333U 19034A   26160.67834545 -.00000098  00000+0  00000+0 0  9997
2 44333   0.0247  68.1337 0000640 190.5571 142.7032  1.00268740 25552
EUTELSAT 7C             
1 44334U 19034B   26161.16086221  .00000066  00000+0  00000+0 0  9997
2 44334   0.0735 173.1347 0003061 250.6305 259.6729  1.00271195  6767
BEIDOU-3 IGSO-2         
1 44337U 19035A   26160.01737213 -.00000043  00000+0  00000+0 0  9994
2 44337  55.2449 158.9337 0039959 216.4337   8.1508  1.00269508 25582
EDRS-C                  
1 44475U 19049A   26160.65529200 -.00000245  00000+0  00000+0 0  9991
2 44475   0.0409 141.6066 0001007 308.4571 186.3828  1.00270940 25139
INTELSAT 39 (IS-39)     
1 44476U 19049B   26161.20966476  .00000051  00000+0  00000+0 0  9998
2 44476   0.0193 319.5347 0000903 353.1759  83.2984  1.00270440 25051
AMOS-17                 
1 44479U 19050A   26160.98667957  .00000126  00000+0  00000+0 0  9992
2 44479   0.0150 336.4106 0001569 127.3490 166.7906  1.00270721 25110
AEHF-5 (USA 292)        
1 44481U 19051A   26161.07330843 -.00000240  00000+0  00000+0 0  9996
2 44481   1.4600 335.6087 0067019   0.7496  41.4730  1.00267036 25196
EUTELSAT 5 WEST B       
1 44624U 19067A   26161.26765963 -.00000025  00000+0  00000+0 0  9999
2 44624   0.0629 350.2487 0003061  88.9655 270.7879  1.00271933 24360
TJS-4                   
1 44637U 19070A   26161.14259251 -.00000152  00000+0  00000+0 0  9993
2 44637   0.0186 312.6415 0004742  87.1137 353.6010  1.00269683 24466
